NORAD_CAT_ID,OBJECT_NAME,OBJECT_TYPE,EPOCH,MEAN_MOTION,ECCENTRICITY,INCLINATION,RA_OF_ASC_NODE,ARG_OF_PERICENTER,MEAN_ANOMALY,BSTAR,MEAN_MOTION_DOT,MEAN_MOTION_DDOT,TLE_LINE0,TLE_LINE1,TLE_LINE2,SEMIMAJOR_AXIS,PERIOD,APOGEE,PERIGEE,DECAYED
52657.0,STARLINK-4084,PAYLOAD,2024-02-17 21:32:51,15.08844569,0.0001532,53.2174,284.8759,92.6795,267.4373,0.00023345,3.43e-05,0.0,0 STARLINK-4084,1 52657U 22053B   24048.89781747  .00003430  00000-0  23345-3 0  9996,2 52657  53.2174 284.8759 0001532  92.6795 267.4373 15.08844569 98066,6917.866,95.437,540.791,538.672,0.0
52657.0,STARLINK-4084,PAYLOAD,2024-02-18 00:43:37,15.08846675,0.0001409,53.2164,284.2807,86.4816,273.6337,0.00026393,3.916e-05,0.0,0 STARLINK-4084,1 52657U 22053B   24049.03029627  .00003916  00000-0  26393-3 0  9990,2 52657  53.2164 284.2807 0001409  86.4816 273.6337 15.08846675 98082,6917.86,95.437,540.7,538.75,0.0
52657.0,STARLINK-4084,PAYLOAD,2024-02-18 15:02:05,15.08842085,0.0001371,53.2156,281.6054,89.2487,270.8662,0.00013628,1.882e-05,0.0,0 STARLINK-4084,1 52657U 22053B   24049.62645708  .00001882  00000-0  13628-3 0  9996,2 52657  53.2156 281.6054 0001371  89.2487 270.8662 15.08842085 98172,6917.874,95.437,540.687,538.791,0.0
52657.0,STARLINK-4084,PAYLOAD,2024-02-18 19:48:15,15.08840488,0.0001355,53.216,280.7119,89.7472,270.3675,9.4383e-05,1.215e-05,0.0,0 STARLINK-4084,1 52657U 22053B   24049.82517757  .00001215  00000-0  94383-4 0  9998,2 52657  53.2160 280.7119 0001355  89.7472 270.3675 15.08840488 98208,6917.879,95.438,540.681,538.807,0.0
52657.0,STARLINK-4084,PAYLOAD,2024-02-18 22:59:01,15.08846161,0.0001421,53.2161,280.1181,86.9141,273.2013,0.00011778,1.587e-05,0.0,0 STARLINK-4084,1 52657U 22053B   24049.95765550  .00001587  00000-0  11778-3 0  9996,2 52657  53.2161 280.1181 0001421  86.9141 273.2013 15.08846161 98222,6917.862,95.437,540.71,538.744,0.0
52657.0,STARLINK-4084,PAYLOAD,2024-02-19 14:52:53,15.0883653,0.0001422,53.2159,277.1434,81.9749,278.1404,4.5379e-05,4.34e-06,0.0,0 STARLINK-4084,1 52657U 22053B   24050.62006097  .00000434  00000-0  45379-4 0  9991,2 52657  53.2159 277.1434 0001422  81.9749 278.1404 15.08836530 98324,6917.891,95.438,540.74,538.772,0.0
52657.0,STARLINK-4084,PAYLOAD,2024-02-19 19:39:02,15.08835451,0.0001575,53.2165,276.2515,81.4903,278.6267,2.016e-05,3.3e-07,0.0,0 STARLINK-4084,1 52657U 22053B   24050.81878290  .00000033  00000-0  20160-4 0  9990,2 52657  53.2165 276.2515 0001575  81.4903 278.6267 15.08835451 98353,6917.894,95.438,540.849,538.67,0.0
52657.0,STARLINK-4084,PAYLOAD,2024-02-19 21:14:25,15.08836321,0.0001381,53.2154,275.9528,86.7548,273.3602,-2.5908e-05,-7e-06,0.0,0 STARLINK-4084,1 52657U 22053B   24050.88502139 -.00000700  00000-0 -25908-4 0  9991,2 52657  53.2154 275.9528 0001381  86.7548 273.3602 15.08836321 98362,6917.892,95.438,540.712,538.801,0.0
52657.0,STARLINK-4084,PAYLOAD,2024-02-20 08:22:07,15.08843815,0.0001444,53.2168,273.8708,84.2425,275.8732,6.6386e-05,7.69e-06,0.0,0 STARLINK-4084,1 52657U 22053B   24051.34869846  .00000769  00000-0  66386-4 0  9992,2 52657  53.2168 273.8708 0001444  84.2425 275.8732 15.08843815 98436,6917.869,95.437,540.733,538.735,0.0
52657.0,STARLINK-4084,PAYLOAD,2024-02-20 21:05:12,15.0884616,0.0001148,53.2161,271.4918,89.8563,270.2561,0.00023051,3.383e-05,0.0,0 STARLINK-4084,1 52657U 22053B   24051.87861164  .00003383  00000-0  23051-3 0  9991,2 52657  53.2161 271.4918 0001148  89.8563 270.2561 15.08846160 98515,6917.862,95.437,540.521,538.932,0.0
52657.0,STARLINK-4084,PAYLOAD,2024-02-21 00:15:57,15.08854704,0.0001409,53.2158,270.8968,89.9331,270.1823,0.00014352,1.998e-05,0.0,0 STARLINK-4084,1 52657U 22053B   24052.01108757  .00001998  00000-0  14352-3 0  9994,2 52657  53.2158 270.8968 0001409  89.9331 270.1823 15.08854704 98538,6917.835,95.437,540.675,538.726,0.0
52657.0,STARLINK-4084,PAYLOAD,2024-02-21 19:20:36,15.08841652,0.0001185,53.215,267.3293,79.1244,280.9881,0.00014787,2.066e-05,0.0,0 STARLINK-4084,1 52657U 22053B   24052.80597449  .00002066  00000-0  14787-3 0  9990,2 52657  53.2150 267.3293 0001185  79.1244 280.9881 15.08841652 98651,6917.875,95.437,540.56,538.921,0.0
52657.0,STARLINK-4084,PAYLOAD,2024-02-21 20:55:59,15.08843057,0.000129,53.216,267.031,87.0462,273.0677,9.9253e-05,1.292e-05,0.0,0 STARLINK-4084,1 52657U 22053B   24052.87221422  .00001292  00000-0  99253-4 0  9994,2 52657  53.2160 267.0310 0001290  87.0462 273.0677 15.08843057 98664,6917.871,95.437,540.628,538.844,0.0
52657.0,STARLINK-4084,PAYLOAD,2024-02-22 20:46:46,15.08842398,0.0001382,53.2156,262.5707,90.6898,269.4253,-2.3489e-05,-6.62e-06,0.0,0 STARLINK-4084,1 52657U 22053B   24053.86581675 -.00000662  00000-0 -23489-4 0  9993,2 52657  53.2156 262.5707 0001382  90.6898 269.4253 15.08842398 98817,6917.873,95.437,540.694,538.782,0.0
52657.0,STARLINK-4084,PAYLOAD,2024-02-23 06:19:04,15.08859372,0.0001323,53.2156,260.7862,93.7434,266.371,-0.00024785,-4.232e-05,0.0,0 STARLINK-4084,1 52657U 22053B   24054.26324904 -.00004232  00000-0 -24785-3 0  9994,2 52657  53.2156 260.7862 0001323  93.7434 266.3710 15.08859372 98874,6917.821,95.436,540.601,538.771,0.0
52657.0,STARLINK-4084,PAYLOAD,2024-02-23 14:16:01,15.08835887,0.0001376,53.2162,259.3002,92.8185,267.2965,5.1239e-05,5.28e-06,0.0,0 STARLINK-4084,1 52657U 22053B   24054.59445918  .00000528  00000-0  51239-4 0  9996,2 52657  53.2162 259.3002 0001376  92.8185 267.2965 15.08835887 98925,6917.893,95.438,540.71,538.806,0.0
52657.0,STARLINK-4084,PAYLOAD,2024-02-23 20:37:33,15.08838924,0.0001387,53.2167,258.1114,93.1793,266.9358,7.0085e-05,8.28e-06,0.0,0 STARLINK-4084,1 52657U 22053B   24054.85941721  .00000828  00000-0  70085-4 0  9991,2 52657  53.2167 258.1114 0001387  93.1793 266.9358 15.08838924 98963,6917.884,95.438,540.708,538.789,0.0
52657.0,STARLINK-4084,PAYLOAD,2024-02-23 22:12:56,15.0883893,0.0001385,53.2167,257.8139,92.6431,267.4719,6.7143e-05,7.81e-06,0.0,0 STARLINK-4084,1 52657U 22053B   24054.92565713  .00000781  00000-0  67143-4 0  9991,2 52657  53.2167 257.8139 0001385  92.6431 267.4719 15.08838930 98972,6917.884,95.438,540.707,538.791,0.0
52657.0,STARLINK-4084,PAYLOAD,2024-02-24 14:06:48,15.08836736,0.0001342,53.216,254.8399,93.7823,266.3322,5.408e-05,5.73e-06,0.0,0 STARLINK-4084,1 52657U 22053B   24055.58806147  .00000573  00000-0  54080-4 0  9998,2 52657  53.2160 254.8399 0001342  93.7823 266.3322 15.08836736 99072,6917.89,95.438,540.684,538.827,0.0
52657.0,STARLINK-4084,PAYLOAD,2024-02-24 22:03:43,15.0884234,0.0001331,53.2162,253.3528,93.9339,266.1805,7.8884e-05,9.68e-06,0.0,0 STARLINK-4084,1 52657U 22053B   24055.91925763  .00000968  00000-0  78884-4 0  9997,2 52657  53.2162 253.3528 0001331  93.9339 266.1805 15.08842340 99122,6917.873,95.437,540.659,538.817,0.0
52657.0,STARLINK-4084,PAYLOAD,2024-02-25 13:57:35,15.08840609,0.0001407,53.216,250.3789,89.8975,270.2179,0.00010357,1.361e-05,0.0,0 STARLINK-4084,1 52657U 22053B   24056.58165884  .00001361  00000-0  10357-3 0  9999,2 52657  53.2160 250.3789 0001407  89.8975 270.2179 15.08840609 99227,6917.879,95.438,540.717,538.77,0.0
52657.0,STARLINK-4084,PAYLOAD,2024-02-25 21:54:30,15.08847186,0.0001363,53.216,248.8919,89.9387,270.1761,0.00011766,1.585e-05,0.0,0 STARLINK-4084,1 52657U 22053B   24056.91285454  .00001585  00000-0  11766-3 0  9995,2 52657  53.2160 248.8919 0001363  89.9387 270.1761 15.08847186 99271,6917.858,95.437,540.666,538.781,0.0
52657.0,STARLINK-4084,PAYLOAD,2024-02-26 12:12:59,15.08838517,0.0001443,53.2158,246.2154,86.1658,273.9499,8.1531e-05,1.01e-05,0.0,0 STARLINK-4084,1 52657U 22053B   24057.50902135  .00001010  00000-0  81531-4 0  9994,2 52657  53.2158 246.2154 0001443  86.1658 273.9499 15.08838517 99367,6917.885,95.438,540.748,538.752,0.0
52657.0,STARLINK-4084,PAYLOAD,2024-02-26 21:45:17,15.08843257,0.0001427,53.2158,244.4317,87.5816,272.534,6.7081e-05,7.8e-06,0.0,0 STARLINK-4084,1 52657U 22053B   24057.90645824  .00000780  00000-0  67081-4 0  9994,2 52657  53.2158 244.4317 0001427  87.5816 272.5340 15.08843257 99425,6917.87,95.437,540.723,538.748,0.0
52657.0,STARLINK-4084,PAYLOAD,2024-02-27 12:03:46,15.08836803,0.0001431,53.2155,241.756,84.129,275.9865,1.3817e-05,-6.8e-07,0.0,0 STARLINK-4084,1 52657U 22053B   24058.50262383 -.00000068  00000-0  13817-4 0  9994,2 52657  53.2155 241.7560 0001431  84.1290 275.9865 15.08836803 99514,6917.89,95.438,540.745,538.765,0.0
52657.0,STARLINK-4084,PAYLOAD,2024-02-27 18:25:19,15.08835814,0.0001315,53.2154,240.5662,86.5446,273.5697,1.2683e-05,-8.6e-07,0.0,0 STARLINK-4084,1 52657U 22053B   24058.76758442 -.00000086  00000-0  12683-4 0  9998,2 52657  53.2154 240.5662 0001315  86.5446 273.5697 15.08835814 99555,6917.893,95.438,540.668,538.848,0.0
52657.0,STARLINK-4084,PAYLOAD,2024-02-27 21:36:05,15.08842107,0.0001382,53.2155,239.9703,88.1021,272.0129,1.9218e-06,-2.57e-06,0.0,0 STARLINK-4084,1 52657U 22053B   24058.90006047 -.00000257  00000-0  19218-5 0  9993,2 52657  53.2155 239.9703 0001382  88.1021 272.0129 15.08842107 99574,6917.874,95.437,540.695,538.783,0.0
52657.0,STARLINK-4084,PAYLOAD,2024-02-28 11:54:33,15.08838443,0.0001375,53.2157,237.2938,90.7226,269.3924,1.9544e-05,2.3e-07,0.0,0 STARLINK-4084,1 52657U 22053B   24059.49622347  .00000023  00000-0  19544-4 0  9996,2 52657  53.2157 237.2938 0001375  90.7226 269.3924 15.08838443 99665,6917.885,95.438,540.701,538.799,0.0
52657.0,STARLINK-4084,PAYLOAD,2024-02-28 18:16:05,15.08841841,0.0001379,53.2158,236.1045,88.7725,271.3426,4.9868e-05,5.06e-06,0.0,0 STARLINK-4084,1 52657U 22053B   24059.76118031  .00000506  00000-0  49868-4 0  9994,2 52657  53.2158 236.1045 0001379  88.7725 271.3426 15.08841841 99709,6917.875,95.437,540.694,538.786,0.0
52657.0,STARLINK-4084,PAYLOAD,2024-02-28 21:26:52,15.08842185,0.00013,53.2159,235.5088,99.0304,261.0835,8.8641e-05,1.123e-05,0.0,0 STARLINK-4084,1 52657U 22053B   24059.89365835  .00001123  00000-0  88641-4 0  9992,2 52657  53.2159 235.5088 0001300  99.0304 261.0835 15.08842185 99726,6917.874,95.437,540.638,538.839,0.0
